{
  "links" : {
    "next" : "https://api.nasa.gov/neo/rest/v1/feed?start_date=2008-11-23&end_date=2008-11-23&detailed=true&api_key=t0TVs3DtDT2H8Oy2Zy8m2eVrNsAVKAexjcZXUckd",
    "prev" : "https://api.nasa.gov/neo/rest/v1/feed?start_date=2008-11-21&end_date=2008-11-21&detailed=true&api_key=t0TVs3DtDT2H8Oy2Zy8m2eVrNsAVKAexjcZXUckd",
    "self" : "https://api.nasa.gov/neo/rest/v1/feed?start_date=2008-11-22&end_date=2008-11-22&detailed=true&api_key=t0TVs3DtDT2H8Oy2Zy8m2eVrNsAVKAexjcZXUckd"
  },
  "element_count" : 6,
  "near_earth_objects" : {
    "2008-11-22" : [ {
      "links" : {
        "self" : "https://api.nasa.gov/neo/rest/v1/neo/2386454?api_key=t0TVs3DtDT2H8Oy2Zy8m2eVrNsAVKAexjcZXUckd"
      },
      "neo_reference_id" : "2386454",
      "name" : "386454 (2008 XM)",
      "nasa_jpl_url" : "http://ssd.jpl.nasa.gov/sbdb.cgi?sstr=2386454",
      "absolute_magnitude_h" : 20.0,
      "estimated_diameter" : {
        "kilometers" : {
          "estimated_diameter_min" : 0.2658,
          "estimated_diameter_max" : 0.5943468684
        },
        "meters" : {
          "estimated_diameter_min" : 265.8,
          "estimated_diameter_max" : 594.3468684194
        },
        "miles" : {
          "estimated_diameter_min" : 0.1651604118,
          "estimated_diameter_max" : 0.369309908
        },
        "feet" : {
          "estimated_diameter_min" : 872.047272,
          "estimated_diameter_max" : 1949.9569797852
        }
      },
      "is_potentially_hazardous_asteroid" : true,
      "close_approach_data" : [ {
        "close_approach_date" : "2008-11-22",
        "epoch_date_close_approach" : 1227340800000,
        "relative_velocity" : {
          "kilometers_per_second" : "36.4496780819",
          "kilometers_per_hour" : "131218.8410949009",
          "miles_per_hour" : "81534.2849014399"
        },
        "miss_distance" : {
          "astronomical" : "0.0744679477",
          "lunar" : "28.9680328369",
          "kilometers" : "11140247",
          "miles" : "6922228.5"
        },
        "orbiting_body" : "Earth"
      } ],
      "orbital_data" : {
        "orbit_id" : "28",
        "orbit_determination_date" : "2017-04-06 09:22:09",
        "orbit_uncertainty" : "0",
        "minimum_orbit_intersection" : ".00475006",
        "jupiter_tisserand_invariant" : "4.659",
        "epoch_osculation" : "2458000.5",
        "eccentricity" : ".9091178015420474",
        "semi_major_axis" : "1.222218947857262",
        "inclination" : "5.447796523160366",
        "ascending_node_longitude" : "240.6348262392476",
        "orbital_period" : "493.5395323230591",
        "perihelion_distance" : ".1110779449782338",
        "perihelion_argument" : "27.35725153426528",
        "aphelion_distance" : "2.33335995073629",
        "perihelion_time" : "2458213.451554231450",
        "mean_anomaly" : "204.6678442100142",
        "mean_motion" : ".7294248513498057",
        "equinox" : "J2000"
      }
    }, {
      "links" : {
        "self" : "https://api.nasa.gov/neo/rest/v1/neo/3618806?api_key=t0TVs3DtDT2H8Oy2Zy8m2eVrNsAVKAexjcZXUckd"
      },
      "neo_reference_id" : "3618806",
      "name" : "(2012 WM28)",
      "nasa_jpl_url" : "http://ssd.jpl.nasa.gov/sbdb.cgi?sstr=3618806",
      "absolute_magnitude_h" : 25.3,
      "estimated_diameter" : {
        "kilometers" : {
          "estimated_diameter_min" : 0.0231502122,
          "estimated_diameter_max" : 0.0517654482
        },
        "meters" : {
          "estimated_diameter_min" : 23.150212221,
          "estimated_diameter_max" : 51.7654482198
        },
        "miles" : {
          "estimated_diameter_min" : 0.0143848705,
          "estimated_diameter_max" : 0.0321655483
        },
        "feet" : {
          "estimated_diameter_min" : 75.9521422633,
          "estimated_diameter_max" : 169.8341531374
        }
      },
      "is_potentially_hazardous_asteroid" : false,
      "close_approach_data" : [ {
        "close_approach_date" : "2008-11-22",
        "epoch_date_close_approach" : 1227340800000,
        "relative_velocity" : {
          "kilometers_per_second" : "7.1020374817",
          "kilometers_per_hour" : "25567.3349342048",
          "miles_per_hour" : "15886.5476428674"
        },
        "miss_distance" : {
          "astronomical" : "0.1202967307",
          "lunar" : "46.7954292297",
          "kilometers" : "17996136",
          "miles" : "11182280"
        },
        "orbiting_body" : "Earth"
      } ],
      "orbital_data" : {
        "orbit_id" : "6",
        "orbit_determination_date" : "2017-04-06 08:47:51",
        "orbit_uncertainty" : "7",
        "minimum_orbit_intersection" : ".0329025",
        "jupiter_tisserand_invariant" : "5.220",
        "epoch_osculation" : "2458000.5",
        "eccentricity" : ".1660986365055558",
        "semi_major_axis" : "1.21544161370549",
        "inclination" : "9.936425948870067",
        "ascending_node_longitude" : "66.61778612118353",
        "orbital_period" : "489.440134534627",
        "perihelion_distance" : "1.013558418916896",
        "perihelion_argument" : "15.555498872101",
        "aphelion_distance" : "1.417324808494084",
        "perihelion_time" : "2458231.181942987466",
        "mean_anomaly" : "190.3255217219782",
        "mean_motion" : ".7355342862152034",
        "equinox" : "J2000"
      }
    }, {
      "links" : {
        "self" : "https://api.nasa.gov/neo/rest/v1/neo/3733941?api_key=t0TVs3DtDT2H8Oy2Zy8m2eVrNsAVKAexjcZXUckd"
      },
      "neo_reference_id" : "3733941",
      "name" : "(2015 VD65)",
      "nasa_jpl_url" : "http://ssd.jpl.nasa.gov/sbdb.cgi?sstr=3733941",
      "absolute_magnitude_h" : 20.7,
      "estimated_diameter" : {
        "kilometers" : {
          "estimated_diameter_min" : 0.1925550782,
          "estimated_diameter_max" : 0.4305662442
        },
        "meters" : {
          "estimated_diameter_min" : 192.5550781879,
          "estimated_diameter_max" : 430.566244241
        },
        "miles" : {
          "estimated_diameter_min" : 0.1196481415,
          "estimated_diameter_max" : 0.2675413778
        },
        "feet" : {
          "estimated_diameter_min" : 631.7424027221,
          "estimated_diameter_max" : 1412.6189567557
        }
      },
      "is_potentially_hazardous_asteroid" : false,
      "close_approach_data" : [ {
        "close_approach_date" : "2008-11-22",
        "epoch_date_close_approach" : 1227340800000,
        "relative_velocity" : {
          "kilometers_per_second" : "16.2963937166",
          "kilometers_per_hour" : "58667.0173798288",
          "miles_per_hour" : "36453.4031047053"
        },
        "miss_distance" : {
          "astronomical" : "0.3476444885",
          "lunar" : "135.2337036133",
          "kilometers" : "52006876",
          "miles" : "32315574"
        },
        "orbiting_body" : "Earth"
      } ],
      "orbital_data" : {
        "orbit_id" : "35",
        "orbit_determination_date" : "2017-04-06 08:30:49",
        "orbit_uncertainty" : "5",
        "minimum_orbit_intersection" : ".317633",
        "jupiter_tisserand_invariant" : "2.545",
        "epoch_osculation" : "2458000.5",
        "eccentricity" : ".6684762253517154",
        "semi_major_axis" : "3.658775050392048",
        "inclination" : "25.7678659250497",
        "ascending_node_longitude" : "226.251972167104",
        "orbital_period" : "2556.24214161887",
        "perihelion_distance" : "1.21297091529494",
        "perihelion_argument" : "224.4775272891743",
        "aphelion_distance" : "6.104579185489157",
        "perihelion_time" : "2457382.832526059828",
        "mean_anomaly" : "86.98717816992135",
        "mean_motion" : ".1408317287860733",
        "equinox" : "J2000"
      }
    } ]
  }
}